[{"OBJECT_NAME":"TRANSPORTER-10 OBJECT AG","OBJECT_ID":"2024-043AG","EPOCH":"2026-03-09T22:12:45.387648","MEAN_MOTION":15.30759727,"ECCENTRICITY":0.00093005,"INCLINATION":97.5471,"RA_OF_ASC_NODE":205.7101,"ARG_OF_PERICENTER":226.5958,"MEAN_ANOMALY":133.4509,"EPHEMERIS_TYPE":0,"CLASSIFICATION_TYPE":"U","NORAD_CAT_ID":59128,"ELEMENT_SET_NO":999,"REV_AT_EPOCH":11192,"BSTAR":0.00032170115,"MEAN_MOTION_DOT":9.498e-5,"MEAN_MOTION_DDOT":0},{"OBJECT_NAME":"STARLINK-34634","OBJECT_ID":"2025-167B","EPOCH":"2026-03-09T07:04:02.665056","MEAN_MOTION":15.30199395,"ECCENTRICITY":0.00010469,"INCLINATION":53.1605,"RA_OF_ASC_NODE":26.1097,"ARG_OF_PERICENTER":89.7103,"MEAN_ANOMALY":270.4017,"EPHEMERIS_TYPE":0,"CLASSIFICATION_TYPE":"U","NORAD_CAT_ID":65079,"ELEMENT_SET_NO":999,"REV_AT_EPOCH":3345,"BSTAR":0.0012923783,"MEAN_MOTION_DOT":0.00038113,"MEAN_MOTION_DDOT":0}]
